NORAD_CAT_ID,OBJECT_NAME,OBJECT_TYPE,EPOCH,MEAN_MOTION,ECCENTRICITY,INCLINATION,RA_OF_ASC_NODE,ARG_OF_PERICENTER,MEAN_ANOMALY,BSTAR,MEAN_MOTION_DOT,MEAN_MOTION_DDOT,TLE_LINE0,TLE_LINE1,TLE_LINE2,SEMIMAJOR_AXIS,PERIOD,APOGEE,PERIGEE,DECAYED
53975.0,STARLINK-5137,PAYLOAD,2022-12-16 01:19:48,15.08845326,0.000179,53.2167,114.9792,34.0984,326.0123,0.00011505,1.544e-05,0.0,0 STARLINK-5137,1 53975U 22125M   22350.05541751  .00001544  00000-0  11505-3 0  9990,2 53975  53.2167 114.9792 0001790  34.0984 326.0123 15.08845326 11374,6917.864000000001,95.437,540.967,538.491,0.0
53975.0,STARLINK-5137,PAYLOAD,2022-12-16 14:02:53,15.08835061,0.0001943,53.2167,112.601,38.9916,321.1216,6.6725e-05,7.74e-06,0.0,0 STARLINK-5137,1 53975U 22125M   22350.58534530  .00000774  00000-0  66725-4 0  9994,2 53975  53.2167 112.6010 0001943  38.9916 321.1216 15.08835061 11385,6917.895,95.438,541.105,538.4159999999998,0.0
53975.0,STARLINK-5137,PAYLOAD,2022-12-16 17:13:40,15.08832617,0.0001837,53.2167,112.006,40.4462,319.6667,-1.5924000000000002e-05,-5.41e-06,0.0,0 STARLINK-5137,1 53975U 22125M   22350.71783021 -.00000541  00000-0 -15924-4 0  9999,2 53975  53.2167 112.0060 0001837  40.4462 319.6667 15.08832617 11476,6917.903,95.438,541.039,538.497,0.0
53975.0,STARLINK-5137,PAYLOAD,2022-12-16 18:49:03,15.08830483,0.000189,53.2169,111.7084,39.7143,320.3987,2.4873e-05,1.08e-06,0.0,0 STARLINK-5137,1 53975U 22125M   22350.78407035  .00000108  00000-0  24873-4 0  9994,2 53975  53.2169 111.7084 0001890  39.7143 320.3987 15.08830483 11413,6917.909000000002,95.438,541.082,538.467,0.0
53975.0,STARLINK-5137,PAYLOAD,2022-12-17 09:07:32,15.08825304,0.0001936,53.2175,109.0329,39.8625,320.2509,-0.00013537,-2.441e-05,0.0,0 STARLINK-5137,1 53975U 22125M   22351.38024282 -.00002441  00000-0 -13537-3 0  9998,2 53975  53.2175 109.0329 0001936  39.8625 320.2509 15.08825304 11571,6917.925,95.438,541.13,538.451,0.0
53975.0,STARLINK-5137,PAYLOAD,2022-12-17 12:18:19,15.08825914,0.0001953,53.2176,108.4379,39.8806,320.2329,-0.00010996,-2.037e-05,0.0,0 STARLINK-5137,1 53975U 22125M   22351.51272192 -.00002037  00000-0 -10996-3 0  9995,2 53975  53.2176 108.4379 0001953  39.8806 320.2329 15.08825914 11522,6917.9230000000025,95.438,541.14,538.437,0.0
53975.0,STARLINK-5137,PAYLOAD,2022-12-17 17:04:28,15.08831985,0.0001909,53.2174,107.5463,42.562,317.552,-8.3663e-06,-4.21e-06,0.0,0 STARLINK-5137,1 53975U 22125M   22351.71143602 -.00000421  00000-0 -83663-5 0  9998,2 53975  53.2174 107.5463 0001909  42.5620 317.5520 15.08831985 11628,6917.905,95.438,541.091,538.4490000000002,0.0
53975.0,STARLINK-5137,PAYLOAD,2022-12-18 13:44:28,15.08835792,0.0002022,53.2176,103.6803,43.625,316.4902,-4.6993e-05,-1.036e-05,0.0,0 STARLINK-5137,1 53975U 22125M   22352.57255749 -.00001036  00000-0 -46993-4 0  9996,2 53975  53.2176 103.6803 0002022  43.6250 316.4902 15.08835792 11681,6917.893,95.438,541.1569999999998,538.359,0.0
53975.0,STARLINK-5137,PAYLOAD,2022-12-18 15:19:52,15.088316199999998,0.000209,53.2174,103.3831,40.7404,319.3744,3.5621e-05,2.79e-06,0.0,0 STARLINK-5137,1 53975U 22125M   22352.63879761  .00000279  00000-0  35621-4 0  9991,2 53975  53.2174 103.3831 0002090  40.7404 319.3744 15.08831620 11694,6917.906,95.438,541.217,538.325,0.0
53975.0,STARLINK-5137,PAYLOAD,2022-12-19 00:52:10,15.08838909,0.0002086,53.2177,101.5985,41.4574,318.6577,0.00010224,1.339e-05,0.0,0 STARLINK-5137,1 53975U 22125M   22353.03623176  .00001339  00000-0  10224-3 0  9992,2 53975  53.2177 101.5985 0002086  41.4574 318.6577 15.08838909 11826,6917.884,95.438,541.192,538.306,0.0
53975.0,STARLINK-5137,PAYLOAD,2022-12-19 07:13:43,15.08835063,0.00021,53.2178,100.4097,42.3201,317.7953,0.00013683,1.89e-05,0.0,0 STARLINK-5137,1 53975U 22125M   22353.30119387  .00001890  00000-0  13683-3 0  9990,2 53975  53.2178 100.4097 0002100  42.3201 317.7953 15.08835063 11795,6917.895,95.438,541.2130000000002,538.308,0.0
53975.0,STARLINK-5137,PAYLOAD,2022-12-20 00:42:56,15.08852793,0.0001691,53.2193,97.1371,57.5644,302.5511,0.00016855,2.396e-05,0.0,0 STARLINK-5137,1 53975U 22125M   22354.02981860  .00002396  00000-0  16855-3 0  9999,2 53975  53.2193  97.1371 0001691  57.5644 302.5511 15.08852793 11973,6917.840999999999,95.437,540.876,538.536,0.0
53975.0,STARLINK-5137,PAYLOAD,2022-12-20 13:26:01,15.08846229,0.0002124,53.2177,94.7596,40.6474,319.4677,7.0458e-05,8.33e-06,0.0,0 STARLINK-5137,1 53975U 22125M   22354.55974275  .00000833  00000-0  70458-4 0  9993,2 53975  53.2177  94.7596 0002124  40.6474 319.4677 15.08846229 11981,6917.861,95.437,541.196,538.257,0.0
53975.0,STARLINK-5137,PAYLOAD,2022-12-20 18:12:11,15.08841744,0.0002069,53.2169,93.8661,39.5069,320.6074,1.3803e-05,-6.9e-07,0.0,0 STARLINK-5137,1 53975U 22125M   22354.75846624 -.00000069  00000-0  13803-4 0  9994,2 53975  53.2169  93.8661 0002069  39.5069 320.6074 15.08841744 12084,6917.875,95.437,541.1709999999998,538.309,0.0
53975.0,STARLINK-5137,PAYLOAD,2022-12-21 06:55:17,15.08835679,0.0002121,53.2163,91.4881,40.9168,319.1983,-9.2626e-05,-1.762e-05,0.0,0 STARLINK-5137,1 53975U 22125M   22355.28839283 -.00001762  00000-0 -92626-4 0  9998,2 53975  53.2163  91.4881 0002121  40.9168 319.1983 15.08835679 12162,6917.894,95.438,541.226,538.2909999999998,0.0
53975.0,STARLINK-5137,PAYLOAD,2022-12-21 13:16:49,15.08839882,0.000212,53.2165,90.2986,37.5952,322.5188,-2.085e-05,-6.2e-06,0.0,0 STARLINK-5137,1 53975U 22125M   22355.55334774 -.00000620  00000-0 -20850-4 0  9995,2 53975  53.2165  90.2986 0002120  37.5952 322.5188 15.08839882 12131,6917.880999999999,95.438,541.212,538.279,0.0
53975.0,STARLINK-5137,PAYLOAD,2022-12-22 13:07:35,15.08845306,0.0002087,53.2168,85.8387,35.51,324.6031,-1.7692999999999998e-05,-5.700000000000001e-06,0.0,0 STARLINK-5137,1 53975U 22125M   22356.54694072 -.00000570  00000-0 -17693-4 0  9990,2 53975  53.2168  85.8387 0002087  35.5100 324.6031 15.08845306 12288,6917.864000000001,95.437,541.173,538.285,0.0
53975.0,STARLINK-5137,PAYLOAD,2022-12-23 06:36:52,15.08815413,0.000238,53.2168,82.5679,10.8461,349.2582,-7.979100000000001e-05,-1.557e-05,0.0,0 STARLINK-5137,1 53975U 22125M   22357.27560386 -.00001557  00000-0 -79791-4 0  9994,2 53975  53.2168  82.5679 0002380  10.8461 349.2582 15.08815413 12468,6917.956,95.439,541.467,538.174,0.0
53975.0,STARLINK-5137,PAYLOAD,2022-12-23 12:58:24,15.08821725,0.0002184,53.2171,81.3778,30.3555,329.7564,-0.00010633,-1.979e-05,0.0,0 STARLINK-5137,1 53975U 22125M   22357.54056394 -.00001979  00000-0 -10633-3 0  9990,2 53975  53.2171  81.3778 0002184  30.3555 329.7564 15.08821725 12435,6917.936,95.439,541.312,538.29,0.0
53975.0,STARLINK-5137,PAYLOAD,2022-12-23 14:33:47,15.08822686,0.0002181,53.2172,81.0804,32.1701,327.9423,-9.8745e-05,-1.859e-05,0.0,0 STARLINK-5137,1 53975U 22125M   22357.60680375 -.00001859  00000-0 -98745-4 0  9997,2 53975  53.2172  81.0804 0002181  32.1701 327.9423 15.08822686 12513,6917.933000000001,95.439,541.307,538.29,0.0
53975.0,STARLINK-5137,PAYLOAD,2022-12-23 22:30:43,15.088293,0.0002211,53.2172,79.5933,30.844,329.2682,-1.4882e-05,-5.25e-06,0.0,0 STARLINK-5137,1 53975U 22125M   22357.93799942 -.00000525  00000-0 -14882-4 0  9993,2 53975  53.2172  79.5933 0002211  30.8440 329.2682 15.08829300 12564,6917.913000000001,95.438,541.308,538.249,0.0
53975.0,STARLINK-5137,PAYLOAD,2022-12-24 06:27:38,15.08839828,0.0002314,53.2165,78.1058,27.2939,332.8175,-2.648e-05,-7.1e-06,0.0,0 STARLINK-5137,1 53975U 22125M   22358.26919540 -.00000710  00000-0 -26480-4 0  9991,2 53975  53.2165  78.1058 0002314  27.2939 332.8175 15.08839828 12615,6917.880999999999,95.438,541.347,538.145,0.0
53975.0,STARLINK-5137,PAYLOAD,2022-12-24 14:24:33,15.08841747,0.0002257,53.2169,76.6193,30.8567,329.2557,1.0945e-05,-1.14e-06,0.0,0 STARLINK-5137,1 53975U 22125M   22358.60039285 -.00000114  00000-0  10945-4 0  9994,2 53975  53.2169  76.6193 0002257  30.8567 329.2557 15.08841747 12599,6917.875,95.437,541.3009999999998,538.179,0.0
53975.0,STARLINK-5137,PAYLOAD,2022-12-25 14:15:21,15.08826939,0.0002296,53.2168,72.1588,30.2579,329.8546,0.00010378,1.363e-05,0.0,0 STARLINK-5137,1 53975U 22125M   22359.59400358  .00001363  00000-0  10378-3 0  9991,2 53975  53.2168  72.1588 0002296  30.2579 329.8546 15.08826939 12812,6917.92,95.438,541.374,538.197,0.0
53975.0,STARLINK-5137,PAYLOAD,2022-12-26 04:33:50,15.08835382,0.00024,53.2169,69.4833,31.762,328.3517,-1.6708e-05,-5.54e-06,0.0,0 STARLINK-5137,1 53975U 22125M   22360.19016562 -.00000554  00000-0 -16708-4 0  9996,2 53975  53.2169  69.4833 0002400  31.7620 328.3517 15.08835382 12831,6917.895,95.438,541.42,538.099,0.0
53975.0,STARLINK-5137,PAYLOAD,2022-12-26 14:06:09,15.08838309,0.0002429,53.2169,67.6992,32.5687,327.5454,-1.4275e-05,-5.16e-06,0.0,0 STARLINK-5137,1 53975U 22125M   22360.58760426 -.00000516  00000-0 -14275-4 0  9999,2 53975  53.2169  67.6992 0002429  32.5687 327.5454 15.08838309 12967,6917.886,95.438,541.431,538.07,0.0
53975.0,STARLINK-5137,PAYLOAD,2022-12-26 22:03:03,15.08847751,0.0002461,53.2178,66.2127,33.1681,326.9465,0.00011004,1.464e-05,0.0,0 STARLINK-5137,1 53975U 22125M   22360.91879342  .00001464  00000-0  11004-3 0  9991,2 53975  53.2178  66.2127 0002461  33.1681 326.9465 15.08847751 13012,6917.857,95.437,541.424,538.019,0.0
53975.0,STARLINK-5137,PAYLOAD,2022-12-27 04:24:35,15.08851483,0.0002406,53.2176,65.0229,32.2818,327.8321,0.00012009,1.624e-05,0.0,0 STARLINK-5137,1 53975U 22125M   22361.18374901  .00001624  00000-0  12009-3 0  9996,2 53975  53.2176  65.0229 0002406  32.2818 327.8321 15.08851483 12984,6917.845,95.437,541.375,538.0459999999998,0.0
53975.0,STARLINK-5137,PAYLOAD,2022-12-28 04:15:22,15.08847658,0.0002411999999999,53.2178,60.5626,32.7412,327.373,0.00012133,1.644e-05,0.0,0 STARLINK-5137,1 53975U 22125M   22362.17734414  .00001644  00000-0  12133-3 0  9995,2 53975  53.2178  60.5626 0002412  32.7412 327.3730 15.08847658 13203,6917.857,95.437,541.391,538.053,0.0
